[{"OBJECT_NAME":"STARLINK-2732","OBJECT_ID":"2021-044J","EPOCH":"2023-06-04T21:31:42.247200","MEAN_MOTION":15.06407728,"ECCENTRICITY":0.0001216,"INCLINATION":53.0538,"RA_OF_ASC_NODE":330.2613,"ARG_OF_PERICENTER":83.7475,"MEAN_ANOMALY":276.3652,"EPHEMERIS_TYPE":0,"CLASSIFICATION_TYPE":"U","NORAD_CAT_ID":48646,"ELEMENT_SET_NO":999,"REV_AT_EPOCH":11166,"BSTAR":0.00078299,"MEAN_MOTION_DOT":0.00011403,"MEAN_MOTION_DDOT":0},{"OBJECT_NAME":"STARLINK-2691","OBJECT_ID":"2021-044K","EPOCH":"2023-06-04T18:15:19.205280","MEAN_MOTION":15.06400052,"ECCENTRICITY":9.15e-5,"INCLINATION":53.0539,"RA_OF_ASC_NODE":330.8734,"ARG_OF_PERICENTER":104.3898,"MEAN_ANOMALY":255.7193,"EPHEMERIS_TYPE":0,"CLASSIFICATION_TYPE":"U","NORAD_CAT_ID":48647,"ELEMENT_SET_NO":999,"REV_AT_EPOCH":11164,"BSTAR":0.00059124,"MEAN_MOTION_DOT":8.536e-5,"MEAN_MOTION_DDOT":0},{"OBJECT_NAME":"STARLINK-2521","OBJECT_ID":"2021-044L","EPOCH":"2023-06-04T21:47:39.865920","MEAN_MOTION":15.0639754,"ECCENTRICITY":0.0001015,"INCLINATION":53.054,"RA_OF_ASC_NODE":330.3751,"ARG_OF_PERICENTER":75.868,"MEAN_ANOMALY":284.2421,"EPHEMERIS_TYPE":0,"CLASSIFICATION_TYPE":"U","NORAD_CAT_ID":48648,"ELEMENT_SET_NO":999,"REV_AT_EPOCH":11166,"BSTAR":0.0001779,"MEAN_MOTION_DOT":2.369e-5,"MEAN_MOTION_DDOT":0},{"OBJECT_NAME":"STARLINK-2673","OBJECT_ID":"2021-044M","EPOCH":"2023-06-04T21:21:05.565600","MEAN_MOTION":15.06401655,"ECCENTRICITY":0.000108,"INCLINATION":53.0538,"RA_OF_ASC_NODE":330.2953,"ARG_OF_PERICENTER":98.1649,"MEAN_ANOMALY":261.9463,"EPHEMERIS_TYPE":0,"CLASSIFICATION_TYPE":"U","NORAD_CAT_ID":48649,"ELEMENT_SET_NO":999,"REV_AT_EPOCH":11165,"BSTAR":0.00078532,"MEAN_MOTION_DOT":0.00011436,"MEAN_MOTION_DDOT":0},{"OBJECT_NAME":"STARLINK-2672","OBJECT_ID":"2021-044N","EPOCH":"2023-06-04T21:15:46.645056","MEAN_MOTION":15.06401467,"ECCENTRICITY":9.64e-5,"INCLINATION":53.0541,"RA_OF_ASC_NODE":330.3167,"ARG_OF_PERICENTER":120.0168,"MEAN_ANOMALY":240.0916,"EPHEMERIS_TYPE":0,"CLASSIFICATION_TYPE":"U","NORAD_CAT_ID":48650,"ELEMENT_SET_NO":999,"REV_AT_EPOCH":11165,"BSTAR":0.00069896,"MEAN_MOTION_DOT":0.00010145,"MEAN_MOTION_DDOT":0},{"OBJECT_NAME":"STARLINK-2731","OBJECT_ID":"2021-044P","EPOCH":"2023-06-04T21:10:28.735392","MEAN_MOTION":15.06391307,"ECCENTRICITY":0.0001223,"INCLINATION":53.0543,"RA_OF_ASC_NODE":330.3292,"ARG_OF_PERICENTER":93.5745,"MEAN_ANOMALY":266.5384,"EPHEMERIS_TYPE":0,"CLASSIFICATION_TYPE":"U","NORAD_CAT_ID":48651,"ELEMENT_SET_NO":999,"REV_AT_EPOCH":11165,"BSTAR":0.00024111,"MEAN_MOTION_DOT":3.311e-5,"MEAN_MOTION_DDOT":0},{"OBJECT_NAME":"STARLINK-2727","OBJECT_ID":"2021-044Q","EPOCH":"2023-06-04T21:05:10.154400","MEAN_MOTION":15.06394822,"ECCENTRICITY":0.0001111,"INCLINATION":53.0543,"RA_OF_ASC_NODE":330.3468,"ARG_OF_PERICENTER":95.6196,"MEAN_ANOMALY":264.492,"EPHEMERIS_TYPE":0,"CLASSIFICATION_TYPE":"U","NORAD_CAT_ID":48652,"ELEMENT_SET_NO":999,"REV_AT_EPOCH":11165,"BSTAR":0.00027539,"MEAN_MOTION_DOT":3.822e-5,"MEAN_MOTION_DDOT":0},{"OBJECT_NAME":"STARLINK-2720","OBJECT_ID":"2021-044R","EPOCH":"2023-06-04T19:24:19.177920","MEAN_MOTION":15.06391199,"ECCENTRICITY":0.0001038,"INCLINATION":53.0545,"RA_OF_ASC_NODE":330.6601,"ARG_OF_PERICENTER":101.3081,"MEAN_ANOMALY":258.8025,"EPHEMERIS_TYPE":0,"CLASSIFICATION_TYPE":"U","NORAD_CAT_ID":48653,"ELEMENT_SET_NO":999,"REV_AT_EPOCH":11164,"BSTAR":0.00023011,"MEAN_MOTION_DOT":3.147e-5,"MEAN_MOTION_DDOT":0},{"OBJECT_NAME":"STARLINK-2651","OBJECT_ID":"2021-044S","EPOCH":"2023-06-04T20:54:33.890976","MEAN_MOTION":15.06402632,"ECCENTRICITY":8.0e-5,"INCLINATION":53.054,"RA_OF_ASC_NODE":330.3782,"ARG_OF_PERICENTER":100.3025,"MEAN_ANOMALY":259.8055,"EPHEMERIS_TYPE":0,"CLASSIFICATION_TYPE":"U","NORAD_CAT_ID":48654,"ELEMENT_SET_NO":999,"REV_AT_EPOCH":11165,"BSTAR":0.00056197,"MEAN_MOTION_DOT":8.1e-5,"MEAN_MOTION_DDOT":0},{"OBJECT_NAME":"STARLINK-2657","OBJECT_ID":"2021-044T","EPOCH":"2023-06-04T19:13:41.980512","MEAN_MOTION":15.06388737,"ECCENTRICITY":0.0001058,"INCLINATION":53.0551,"RA_OF_ASC_NODE":330.6932,"ARG_OF_PERICENTER":90.3401,"MEAN_ANOMALY":269.7709,"EPHEMERIS_TYPE":0,"CLASSIFICATION_TYPE":"U","NORAD_CAT_ID":48655,"ELEMENT_SET_NO":999,"REV_AT_EPOCH":11164,"BSTAR":9.2818e-5,"MEAN_MOTION_DOT":1.101e-5,"MEAN_MOTION_DDOT":0},{"OBJECT_NAME":"STARLINK-2701","OBJECT_ID":"2021-044U","EPOCH":"2023-06-04T20:43:55.737120","MEAN_MOTION":15.06397514,"ECCENTRICITY":7.21e-5,"INCLINATION":53.0548,"RA_OF_ASC_NODE":330.4113,"ARG_OF_PERICENTER":99.6983,"MEAN_ANOMALY":260.4088,"EPHEMERIS_TYPE":0,"CLASSIFICATION_TYPE":"U","NORAD_CAT_ID":48656,"ELEMENT_SET_NO":999,"REV_AT_EPOCH":11165,"BSTAR":0.00061012,"MEAN_MOTION_DOT":8.817e-5,"MEAN_MOTION_DDOT":0},{"OBJECT_NAME":"STARLINK-2734","OBJECT_ID":"2021-044V","EPOCH":"2023-06-04T22:14:10.030272","MEAN_MOTION":15.06401982,"ECCENTRICITY":0.0001168,"INCLINATION":53.0541,"RA_OF_ASC_NODE":330.1335,"ARG_OF_PERICENTER":68.6161,"MEAN_ANOMALY":291.4953,"EPHEMERIS_TYPE":0,"CLASSIFICATION_TYPE":"U","NORAD_CAT_ID":48657,"ELEMENT_SET_NO":999,"REV_AT_EPOCH":11166,"BSTAR":0.0004571,"MEAN_MOTION_DOT":6.534e-5,"MEAN_MOTION_DDOT":0},{"OBJECT_NAME":"STARLINK-2647","OBJECT_ID":"2021-044W","EPOCH":"2023-06-04T22:08:52.774656","MEAN_MOTION":15.0637371,"ECCENTRICITY":0.0001094,"INCLINATION":53.0536,"RA_OF_ASC_NODE":330.1527,"ARG_OF_PERICENTER":63.244,"MEAN_ANOMALY":296.8661,"EPHEMERIS_TYPE":0,"CLASSIFICATION_TYPE":"U","NORAD_CAT_ID":48658,"ELEMENT_SET_NO":999,"REV_AT_EPOCH":11256,"BSTAR":0.00097379,"MEAN_MOTION_DOT":0.00014242,"MEAN_MOTION_DDOT":0},{"OBJECT_NAME":"STARLINK-2717","OBJECT_ID":"2021-044X","EPOCH":"2023-06-04T18:52:28.440192","MEAN_MOTION":15.06390445,"ECCENTRICITY":0.0001074,"INCLINATION":53.0546,"RA_OF_ASC_NODE":330.7607,"ARG_OF_PERICENTER":105.2731,"MEAN_ANOMALY":254.8376,"EPHEMERIS_TYPE":0,"CLASSIFICATION_TYPE":"U","NORAD_CAT_ID":48659,"ELEMENT_SET_NO":999,"REV_AT_EPOCH":11164,"BSTAR":0.00016779,"MEAN_MOTION_DOT":2.218e-5,"MEAN_MOTION_DDOT":0},{"OBJECT_NAME":"STARLINK-2688","OBJECT_ID":"2021-044Y","EPOCH":"2023-06-04T18:47:09.886848","MEAN_MOTION":15.06398711,"ECCENTRICITY":8.4e-5,"INCLINATION":53.0546,"RA_OF_ASC_NODE":330.7785,"ARG_OF_PERICENTER":95.3811,"MEAN_ANOMALY":264.7274,"EPHEMERIS_TYPE":0,"CLASSIFICATION_TYPE":"U","NORAD_CAT_ID":48660,"ELEMENT_SET_NO":999,"REV_AT_EPOCH":11164,"BSTAR":0.00064997,"MEAN_MOTION_DOT":9.413e-5,"MEAN_MOTION_DDOT":0},{"OBJECT_NAME":"STARLINK-2708","OBJECT_ID":"2021-044Z","EPOCH":"2023-06-04T17:12:56.888640","MEAN_MOTION":15.06394552,"ECCENTRICITY":7.81e-5,"INCLINATION":53.0537,"RA_OF_ASC_NODE":321.0701,"ARG_OF_PERICENTER":92.1409,"MEAN_ANOMALY":267.967,"EPHEMERIS_TYPE":0,"CLASSIFICATION_TYPE":"U","NORAD_CAT_ID":48661,"ELEMENT_SET_NO":999,"REV_AT_EPOCH":11177,"BSTAR":0.00054171,"MEAN_MOTION_DOT":7.795e-5,"MEAN_MOTION_DDOT":0},{"OBJECT_NAME":"STARLINK-2726","OBJECT_ID":"2021-044AA","EPOCH":"2023-06-04T20:18:43.003584","MEAN_MOTION":15.06394093,"ECCENTRICITY":7.11e-5,"INCLINATION":53.0538,"RA_OF_ASC_NODE":320.4893,"ARG_OF_PERICENTER":119.9265,"MEAN_ANOMALY":240.1795,"EPHEMERIS_TYPE":0,"CLASSIFICATION_TYPE":"U","NORAD_CAT_ID":48662,"ELEMENT_SET_NO":999,"REV_AT_EPOCH":11179,"BSTAR":0.0004904,"MEAN_MOTION_DOT":7.03e-5,"MEAN_MOTION_DDOT":0}]
