STARLINK-2732           
1 48646U 21044J   23155.89701675  .00011403  00000+0  78299-3 0  9994
2 48646  53.0538 330.2613 0001216  83.7475 276.3652 15.06407728111662
STARLINK-2691           
1 48647U 21044K   23155.76063895  .00008536  00000+0  59124-3 0  9995
2 48647  53.0539 330.8734 0000915 104.3898 255.7193 15.06400052111640
STARLINK-2521           
1 48648U 21044L   23155.90810030  .00002369  00000+0  17790-3 0  9994
2 48648  53.0540 330.3751 0001015  75.8680 284.2421 15.06397540111660
STARLINK-2673           
1 48649U 21044M   23155.88964775  .00011436  00000+0  78532-3 0  9994
2 48649  53.0538 330.2953 0001080  98.1649 261.9463 15.06401655111656
STARLINK-2672           
1 48650U 21044N   23155.88595654  .00010145  00000+0  69896-3 0  9991
2 48650  53.0541 330.3167 0000964 120.0168 240.0916 15.06401467111653
STARLINK-2731           
1 48651U 21044P   23155.88227703  .00003311  00000+0  24111-3 0  9997
2 48651  53.0543 330.3292 0001223  93.5745 266.5384 15.06391307111652
STARLINK-2727           
1 48652U 21044Q   23155.87858975  .00003822  00000+0  27539-3 0  9992
2 48652  53.0543 330.3468 0001111  95.6196 264.4920 15.06394822111655
STARLINK-2720           
1 48653U 21044R   23155.80855530  .00003147  00000+0  23011-3 0  9991
2 48653  53.0545 330.6601 0001038 101.3081 258.8025 15.06391199111642
STARLINK-2651           
1 48654U 21044S   23155.87122559  .00008100  00000+0  56197-3 0  9992
2 48654  53.0540 330.3782 0000800 100.3025 259.8055 15.06402632111658
STARLINK-2657           
1 48655U 21044T   23155.80118033  .00001101  00000+0  92818-4 0  9993
2 48655  53.0551 330.6932 0001058  90.3401 269.7709 15.06388737111647
STARLINK-2701           
1 48656U 21044U   23155.86383955  .00008817  00000+0  61012-3 0  9999
2 48656  53.0548 330.4113 0000721  99.6983 260.4088 15.06397514111658
STARLINK-2734           
1 48657U 21044V   23155.92650498  .00006534  00000+0  45710-3 0  9997
2 48657  53.0541 330.1335 0001168  68.6161 291.4953 15.06401982111666
STARLINK-2647           
1 48658U 21044W   23155.92283304  .00014242  00000+0  97379-3 0  9999
2 48658  53.0536 330.1527 0001094  63.2440 296.8661 15.06373710112565
STARLINK-2717           
1 48659U 21044X   23155.78644028  .00002218  00000+0  16779-3 0  9993
2 48659  53.0546 330.7607 0001074 105.2731 254.8376 15.06390445111649
STARLINK-2688           
1 48660U 21044Y   23155.78275332  .00009413  00000+0  64997-3 0  9992
2 48660  53.0546 330.7785 0000840  95.3811 264.7274 15.06398711111647
STARLINK-2708           
1 48661U 21044Z   23155.71732510  .00007795  00000+0  54171-3 0  9996
2 48661  53.0537 321.0701 0000781  92.1409 267.9670 15.06394552111779
STARLINK-2726           
1 48662U 21044AA  23155.84633106  .00007030  00000+0  49040-3 0  9993
2 48662  53.0538 320.4893 0000711 119.9265 240.1795 15.06394093111790
